SBSS (USA 216)          
1 37168U 10048A   26068.88624904  .00004946  00000+0  24191-3 0  9993
2 37168  97.7474 312.3885 0082264 184.8326 306.5835 15.15724210837421
STARLINK-34329          
1 64256U 25120A   26068.52652309  .00022982  00000+0  78591-3 0  9992
2 64256  53.1588 117.2785 0001206  91.5145 268.5994 15.30190316 43908
